start=new Date('2022-12-30T00:00:00.000Z').valueOf();
sats=[{"TLE_LINE1":"1 48303U 21036AD  22363.20696008 -.00002425  00000-0 -14393-3 0  9995","MEAN_ELEMENT_THEORY":"SGP4","RA_OF_ASC_NODE":"288.1632","INCLINATION":"53.0540","MEAN_MOTION_DOT":"-0.00002425","OBJECT_TYPE":"PAYLOAD","SEMIMAJOR_AXIS":"6925.354","MEAN_ANOMALY":"295.7098","MEAN_MOTION":"15.06398319","CENTER_NAME":"EARTH","EPHEMERIS_TYPE":"0","PERIOD":"95.592","REF_FRAME":"TEME","PERIAPSIS":"546.166","BSTAR":"-0.00014393000000","OBJECT_ID":"2021-036AD","APOAPSIS":"548.271","ECCENTRICITY":"0.00015200","EPOCH":"2022-12-29T04:58:01.350912","DECAY_DATE":null,"OBJECT_NAME":"STARLINK-2530","ELEMENT_SET_NO":"999","RCS_SIZE":"LARGE","COUNTRY_CODE":"US","FILE":"3725790","ARG_OF_PERICENTER":"64.4048","CLASSIFICATION_TYPE":"U","NORAD_CAT_ID":"48303","LAUNCH_DATE":"2021-04-29","MEAN_MOTION_DDOT":"0.0000000000000","TLE_LINE2":"2 48303  53.0540 288.1632 0001520  64.4048 295.7098 15.06398319 92355","SITE":"AFETR","GP_ID":"221736910","REV_AT_EPOCH":"9235","TIME_SYSTEM":"UTC"},{"MEAN_MOTION":"15.06392339","MEAN_ANOMALY":"298.0683","SEMIMAJOR_AXIS":"6925.372","OBJECT_TYPE":"PAYLOAD","MEAN_MOTION_DOT":"-0.00002013","INCLINATION":"53.0542","MEAN_ELEMENT_THEORY":"SGP4","RA_OF_ASC_NODE":"288.1741","TLE_LINE1":"1 48304U 21036AE  22363.20421343 -.00002013  00000-0 -11629-3 0  9996","PERIAPSIS":"546.204","REF_FRAME":"TEME","PERIOD":"95.593","EPHEMERIS_TYPE":"0","CENTER_NAME":"EARTH","RCS_SIZE":"LARGE","ELEMENT_SET_NO":"999","OBJECT_NAME":"STARLINK-2524","DECAY_DATE":null,"EPOCH":"2022-12-29T04:54:04.040352","ECCENTRICITY":"0.00014920","APOAPSIS":"548.270","OBJECT_ID":"2021-036AE","BSTAR":"-0.00011629000000","TIME_SYSTEM":"UTC","GP_ID":"221737160","REV_AT_EPOCH":"9235","SITE":"AFETR","TLE_LINE2":"2 48304  53.0542 288.1741 0001492  62.0457 298.0683 15.06392339 92357","LAUNCH_DATE":"2021-04-29","MEAN_MOTION_DDOT":"0.0000000000000","NORAD_CAT_ID":"48304","CLASSIFICATION_TYPE":"U","ARG_OF_PERICENTER":"62.0457","FILE":"3725790","COUNTRY_CODE":"US"},{"TLE_LINE1":"1 48305U 21036AF  22363.59767402 -.00005315  00000-0 -33836-3 0  9990","RA_OF_ASC_NODE":"286.4034","MEAN_ELEMENT_THEORY":"SGP4","MEAN_MOTION_DOT":"-0.00005315","INCLINATION":"53.0529","OBJECT_TYPE":"PAYLOAD","SEMIMAJOR_AXIS":"6925.410","MEAN_ANOMALY":"270.8737","MEAN_MOTION":"15.06379820","CENTER_NAME":"EARTH","EPHEMERIS_TYPE":"0","REF_FRAME":"TEME","PERIOD":"95.593","PERIAPSIS":"546.273","OBJECT_ID":"2021-036AF","BSTAR":"-0.00033836000000","APOAPSIS":"548.278","ECCENTRICITY":"0.00014470","EPOCH":"2022-12-29T14:20:39.035328","OBJECT_NAME":"STARLINK-2519","DECAY_DATE":null,"ELEMENT_SET_NO":"999","RCS_SIZE":"LARGE","COUNTRY_CODE":"US","FILE":"3725863","ARG_OF_PERICENTER":"89.2418","CLASSIFICATION_TYPE":"U","NORAD_CAT_ID":"48305","TLE_LINE2":"2 48305  53.0529 286.4034 0001447  89.2418 270.8737 15.06379820 93008","SITE":"AFETR","MEAN_MOTION_DDOT":"0.0000000000000","LAUNCH_DATE":"2021-04-29","GP_ID":"221743262","REV_AT_EPOCH":"9300","TIME_SYSTEM":"UTC"},{"FILE":"3725864","COUNTRY_CODE":"US","CLASSIFICATION_TYPE":"U","ARG_OF_PERICENTER":"61.9045","MEAN_MOTION_DDOT":"0.0000000000000","LAUNCH_DATE":"2021-04-29","TLE_LINE2":"2 48306  53.0576 286.7273 0001472  61.9045 298.2092 15.06394828 92990","SITE":"AFETR","NORAD_CAT_ID":"48306","TIME_SYSTEM":"UTC","GP_ID":"221743278","REV_AT_EPOCH":"9299","APOAPSIS":"548.249","BSTAR":"-0.00013657000000","OBJECT_ID":"2021-036AG","EPOCH":"2022-12-29T12:41:09.724128","ECCENTRICITY":"0.00014720","ELEMENT_SET_NO":"999","RCS_SIZE":"LARGE","DECAY_DATE":null,"OBJECT_NAME":"STARLINK-2523","CENTER_NAME":"EARTH","EPHEMERIS_TYPE":"0","PERIAPSIS":"546.210","PERIOD":"95.592","REF_FRAME":"TEME","MEAN_ELEMENT_THEORY":"SGP4","RA_OF_ASC_NODE":"286.7273","TLE_LINE1":"1 48306U 21036AG  22363.52858477 -.00002315  00000-0 -13657-3 0  9993","INCLINATION":"53.0576","MEAN_MOTION_DOT":"-0.00002315","SEMIMAJOR_AXIS":"6925.364","OBJECT_TYPE":"PAYLOAD","MEAN_MOTION":"15.06394828","MEAN_ANOMALY":"298.2092"},{"SEMIMAJOR_AXIS":"6925.393","OBJECT_TYPE":"PAYLOAD","MEAN_MOTION":"15.06385560","MEAN_ANOMALY":"298.1352","RA_OF_ASC_NODE":"286.7473","MEAN_ELEMENT_THEORY":"SGP4","TLE_LINE1":"1 48307U 21036AH  22363.52490662 -.00002533  00000-0 -15130-3 0  9992","INCLINATION":"53.0556","MEAN_MOTION_DOT":"-0.00002533","PERIAPSIS":"546.185","PERIOD":"95.593","REF_FRAME":"TEME","CENTER_NAME":"EARTH","EPHEMERIS_TYPE":"0","EPOCH":"2022-12-29T12:35:51.931968","ECCENTRICITY":"0.00015490","ELEMENT_SET_NO":"999","RCS_SIZE":"LARGE","DECAY_DATE":null,"OBJECT_NAME":"STARLINK-2528","APOAPSIS":"548.331","BSTAR":"-0.00015130000000","OBJECT_ID":"2021-036AH","LAUNCH_DATE":"2021-04-29","MEAN_MOTION_DDOT":"0.0000000000000","TLE_LINE2":"2 48307  53.0556 286.7473 0001549  61.9793 298.1352 15.06385560 92997","SITE":"AFETR","NORAD_CAT_ID":"48307","TIME_SYSTEM":"UTC","GP_ID":"221743506","REV_AT_EPOCH":"9299","FILE":"3725870","COUNTRY_CODE":"US","CLASSIFICATION_TYPE":"U","ARG_OF_PERICENTER":"61.9793"},{"OBJECT_NAME":"STARLINK-2532","DECAY_DATE":null,"RCS_SIZE":"LARGE","ELEMENT_SET_NO":"999","ECCENTRICITY":"0.00014910","EPOCH":"2022-12-29T12:30:32.841216","OBJECT_ID":"2021-036AJ","BSTAR":"-0.00030576000000","APOAPSIS":"548.293","GP_ID":"221743576","REV_AT_EPOCH":"9299","TIME_SYSTEM":"UTC","NORAD_CAT_ID":"48308","SITE":"AFETR","TLE_LINE2":"2 48308  53.0535 286.7550 0001491  96.7816 263.3342 15.06384584 92997","MEAN_MOTION_DDOT":"0.0000000000000","LAUNCH_DATE":"2021-04-29","ARG_OF_PERICENTER":"96.7816","CLASSIFICATION_TYPE":"U","COUNTRY_CODE":"US","FILE":"3725873","MEAN_ANOMALY":"263.3342","MEAN_MOTION":"15.06384584","OBJECT_TYPE":"PAYLOAD","SEMIMAJOR_AXIS":"6925.396","MEAN_MOTION_DOT":"-0.00004831","INCLINATION":"53.0535","TLE_LINE1":"1 48308U 21036AJ  22363.52121344 -.00004831  00000-0 -30576-3 0  9995","MEAN_ELEMENT_THEORY":"SGP4","RA_OF_ASC_NODE":"286.7550","PERIOD":"95.593","REF_FRAME":"TEME","PERIAPSIS":"546.228","EPHEMERIS_TYPE":"0","CENTER_NAME":"EARTH"},{"FILE":"3725790","COUNTRY_CODE":"US","CLASSIFICATION_TYPE":"U","ARG_OF_PERICENTER":"71.6412","SITE":"AFETR","TLE_LINE2":"2 48309  53.0549 286.7794 0001454  71.6412 288.4735 15.06385595 92409","LAUNCH_DATE":"2021-04-29","MEAN_MOTION_DDOT":"0.0000000000000","NORAD_CAT_ID":"48309","TIME_SYSTEM":"UTC","REV_AT_EPOCH":"9240","GP_ID":"221737912","APOAPSIS":"548.265","OBJECT_ID":"2021-036AK","BSTAR":"-0.00018818000000","EPOCH":"2022-12-29T12:25:15.103488","ECCENTRICITY":"0.00014540","RCS_SIZE":"LARGE","ELEMENT_SET_NO":"999","OBJECT_NAME":"STARLINK-2517","DECAY_DATE":null,"CENTER_NAME":"EARTH","EPHEMERIS_TYPE":"0","PERIAPSIS":"546.251","PERIOD":"95.593","REF_FRAME":"TEME","RA_OF_ASC_NODE":"286.7794","MEAN_ELEMENT_THEORY":"SGP4","TLE_LINE1":"1 48309U 21036AK  22363.51753592 -.00003082  00000-0 -18818-3 0  9993","MEAN_MOTION_DOT":"-0.00003082","INCLINATION":"53.0549","SEMIMAJOR_AXIS":"6925.393","OBJECT_TYPE":"PAYLOAD","MEAN_MOTION":"15.06385595","MEAN_ANOMALY":"288.4735"},{"OBJECT_ID":"2021-036AL","BSTAR":"-0.00029701000000","APOAPSIS":"548.364","OBJECT_NAME":"STARLINK-2536","DECAY_DATE":null,"RCS_SIZE":"LARGE","ELEMENT_SET_NO":"999","ECCENTRICITY":"0.00015720","EPOCH":"2022-12-29T12:19:55.859808","ARG_OF_PERICENTER":"83.5675","CLASSIFICATION_TYPE":"U","COUNTRY_CODE":"US","FILE":"3725876","GP_ID":"221743691","REV_AT_EPOCH":"9299","TIME_SYSTEM":"UTC","NORAD_CAT_ID":"48310","SITE":"AFETR","TLE_LINE2":"2 48310  53.0518 286.7955 0001572  83.5675 276.5493 15.06379835 92993","LAUNCH_DATE":"2021-04-29","MEAN_MOTION_DDOT":"0.0000000000000","MEAN_MOTION_DOT":"-0.00004700","INCLINATION":"53.0518","TLE_LINE1":"1 48310U 21036AL  22363.51384097 -.00004700  00000-0 -29701-3 0  9996","RA_OF_ASC_NODE":"286.7955","MEAN_ELEMENT_THEORY":"SGP4","MEAN_ANOMALY":"276.5493","MEAN_MOTION":"15.06379835","OBJECT_TYPE":"PAYLOAD","SEMIMAJOR_AXIS":"6925.410","EPHEMERIS_TYPE":"0","CENTER_NAME":"EARTH","REF_FRAME":"TEME","PERIOD":"95.593","PERIAPSIS":"546.187"},{"TIME_SYSTEM":"UTC","GP_ID":"221743729","REV_AT_EPOCH":"9304","SITE":"AFETR","TLE_LINE2":"2 48311  53.0548 286.8011 0001385  67.0233 293.0902 15.06374556 93041","MEAN_MOTION_DDOT":"0.0000000000000","LAUNCH_DATE":"2021-04-29","NORAD_CAT_ID":"48311","CLASSIFICATION_TYPE":"U","ARG_OF_PERICENTER":"67.0233","FILE":"3725874","COUNTRY_CODE":"US","RCS_SIZE":"LARGE","ELEMENT_SET_NO":"999","OBJECT_NAME":"STARLINK-2534","DECAY_DATE":null,"EPOCH":"2022-12-29T12:14:37.317696","ECCENTRICITY":"0.00013850","APOAPSIS":"548.251","OBJECT_ID":"2021-036AM","BSTAR":"-0.00044810000000","PERIAPSIS":"546.332","REF_FRAME":"TEME","PERIOD":"95.594","EPHEMERIS_TYPE":"0","CENTER_NAME":"EARTH","MEAN_MOTION":"15.06374556","MEAN_ANOMALY":"293.0902","SEMIMAJOR_AXIS":"6925.427","OBJECT_TYPE":"PAYLOAD","MEAN_MOTION_DOT":"-0.00006945","INCLINATION":"53.0548","RA_OF_ASC_NODE":"286.8011","MEAN_ELEMENT_THEORY":"SGP4","TLE_LINE1":"1 48311U 21036AM  22363.51015414 -.00006945  00000-0 -44810-3 0  9992"},{"DECAY_DATE":null,"OBJECT_NAME":"STARLINK-2061","ELEMENT_SET_NO":"999","RCS_SIZE":"LARGE","ECCENTRICITY":"0.00015210","EPOCH":"2022-12-29T04:11:37.461696","BSTAR":"-0.00008484500000","OBJECT_ID":"2021-036AN","APOAPSIS":"548.298","REV_AT_EPOCH":"9235","GP_ID":"221737161","TIME_SYSTEM":"UTC","NORAD_CAT_ID":"48312","LAUNCH_DATE":"2021-04-29","MEAN_MOTION_DDOT":"0.0000000000000","TLE_LINE2":"2 48312  53.0537 288.3133 0001521  88.0636 272.0527 15.06389908 92354","SITE":"AFETR","ARG_OF_PERICENTER":"88.0636","CLASSIFICATION_TYPE":"U","COUNTRY_CODE":"US","FILE":"3725790","MEAN_ANOMALY":"272.0527","MEAN_MOTION":"15.06389908","OBJECT_TYPE":"PAYLOAD","SEMIMAJOR_AXIS":"6925.379","INCLINATION":"53.0537","MEAN_MOTION_DOT":"-0.00001545","TLE_LINE1":"1 48312U 21036AN  22363.17473914 -.00001545  00000-0 -84845-4 0  9992","MEAN_ELEMENT_THEORY":"SGP4","RA_OF_ASC_NODE":"288.3133","REF_FRAME":"TEME","PERIOD":"95.593","PERIAPSIS":"546.191","EPHEMERIS_TYPE":"0","CENTER_NAME":"EARTH"}];
